NORAD_CAT_ID,OBJECT_NAME,OBJECT_TYPE,EPOCH,MEAN_MOTION,ECCENTRICITY,INCLINATION,RA_OF_ASC_NODE,ARG_OF_PERICENTER,MEAN_ANOMALY,BSTAR,MEAN_MOTION_DOT,MEAN_MOTION_DDOT,TLE_LINE0,TLE_LINE1,TLE_LINE2,SEMIMAJOR_AXIS,PERIOD,APOGEE,PERIGEE,DECAYED
55433.0,STARLINK-5570,PAYLOAD,2024-06-25 13:39:50,14.98329525,0.0003302,69.9991,232.9371,267.6439,92.4342,3.4731e-05,3.21e-06,0.0,0 STARLINK-5570,1 55433U 23014AU  24177.56932963  .00000321  00000-0  34731-4 0  9992,2 55433  69.9991 232.9371 0003302 267.6439  92.4342 14.98329525 77889,6950.194,96.107,574.354,569.764,0.0
55433.0,STARLINK-5570,PAYLOAD,2024-06-26 10:29:34,14.98334418,0.0003298,69.9993,230.7487,268.3313,91.7468,4.2839e-05,4.18e-06,0.0,0 STARLINK-5570,1 55433U 23014AU  24178.43720493  .00000418  00000-0  42839-4 0  9997,2 55433  69.9993 230.7487 0003298 268.3313  91.7468 14.98334418 78012,6950.179,96.107,574.336,569.752,0.0
55433.0,STARLINK-5570,PAYLOAD,2024-06-27 12:07:43,14.98330339,0.0003443,69.9991,228.0542,272.2511,87.8253,5.0504e-05,5.1e-06,0.0,0 STARLINK-5570,1 55433U 23014AU  24179.50536659  .00000510  00000-0  50504-4 0  9996,2 55433  69.9991 228.0542 0003443 272.2511  87.8253 14.98330339 77237,6950.192,96.107,574.45,569.664,0.0
55433.0,STARLINK-5570,PAYLOAD,2024-06-27 13:43:51,14.98331067,0.0003449,69.9992,227.886,272.7309,87.3455,5.6556e-05,5.82e-06,0.0,0 STARLINK-5570,1 55433U 23014AU  24179.57212598  .00000582  00000-0  56556-4 0  9998,2 55433  69.9992 227.8860 0003449 272.7309  87.3455 14.98331067 78187,6950.19,96.107,574.452,569.657,0.0
55433.0,STARLINK-5570,PAYLOAD,2024-06-28 12:09:44,14.98334025,0.000334,69.9994,225.5306,264.4461,95.6317,4.0713e-05,3.93e-06,0.0,0 STARLINK-5570,1 55433U 23014AU  24180.50676364  .00000393  00000-0  40713-4 0  9996,2 55433  69.9994 225.5306 0003340 264.4461  95.6317 14.98334025 77383,6950.18,96.107,574.367,569.724,0.0
55433.0,STARLINK-5570,PAYLOAD,2024-06-29 12:11:45,14.98333437,0.0003338,69.9993,223.0056,264.0337,96.0441,8.0222e-05,8.64e-06,0.0,0 STARLINK-5570,1 55433U 23014AU  24181.50816186  .00000864  00000-0  80222-4 0  9997,2 55433  69.9993 223.0056 0003338 264.0337  96.0441 14.98333437 77538,6950.182,96.107,574.367,569.727,0.0
55433.0,STARLINK-5570,PAYLOAD,2024-06-29 13:47:53,14.98334244,0.0003344,69.9993,222.837,263.8159,96.2619,8.8268e-05,9.6e-06,0.0,0 STARLINK-5570,1 55433U 23014AU  24181.57492102  .00000960  00000-0  88268-4 0  9997,2 55433  69.9993 222.8370 0003344 263.8159  96.2619 14.98334244 78481,6950.18,96.107,574.369,569.721,0.0
55433.0,STARLINK-5570,PAYLOAD,2024-06-30 04:13:06,14.98322521,0.0003158,69.9995,221.3217,255.645,104.4359,-3.0096e-05,-4.52e-06,0.0,0 STARLINK-5570,1 55433U 23014AU  24182.17577224 -.00000452  00000-0 -30096-4 0  9997,2 55433  69.9995 221.3217 0003158 255.6450 104.4359 14.98322521 77637,6950.216,96.107,574.276,569.886,0.0
55433.0,STARLINK-5570,PAYLOAD,2024-06-30 12:13:47,14.98321209,0.0003275,69.9991,220.4788,263.8538,96.2248,-5.4814e-05,-7.47e-06,0.0,0 STARLINK-5570,1 55433U 23014AU  24182.50957542 -.00000747  00000-0 -54814-4 0  9990,2 55433  69.9991 220.4788 0003275 263.8538  96.2248 14.98321209 78621,6950.22,96.108,574.361,569.809,0.0
55433.0,STARLINK-5570,PAYLOAD,2024-07-01 04:15:07,14.9833095,0.0003385,69.9986,218.7947,263.9204,96.157,2.4318e-05,1.97e-06,0.0,0 STARLINK-5570,1 55433U 23014AU  24183.17716846  .00000197  00000-0  24318-4 0  9997,2 55433  69.9986 218.7947 0003385 263.9204  96.1570 14.98330950 77781,6950.19,96.107,574.408,569.702,0.0
55433.0,STARLINK-5570,PAYLOAD,2024-07-01 12:15:47,14.98331673,0.000366,69.9985,217.9521,268.266,91.808,7.0271e-05,7.46e-06,0.0,0 STARLINK-5570,1 55433U 23014AU  24183.51096678  .00000746  00000-0  70271-4 0  9998,2 55433  69.9985 217.9521 0003660 268.2660  91.8080 14.98331673 78770,6950.188,96.107,574.596,569.509,0.0
55433.0,STARLINK-5570,PAYLOAD,2024-07-01 20:16:27,14.98332014,0.0003456,69.9989,217.1119,264.7378,95.3387,0.00012038,1.344e-05,0.0,0 STARLINK-5570,1 55433U 23014AU  24183.84476523  .00001344  00000-0  12038-3 0  9996,2 55433  69.9989 217.1119 0003456 264.7378  95.3387 14.98332014 78824,6950.187,96.107,574.454,569.65,0.0
55433.0,STARLINK-5570,PAYLOAD,2024-07-02 04:17:08,14.98331571,0.0003602,69.9985,216.2712,266.7584,93.3163,0.00015809,1.794e-05,0.0,0 STARLINK-5570,1 55433U 23014AU  24184.17856490  .00001794  00000-0  15809-3 0  9996,2 55433  69.9985 216.2712 0003602 266.7584  93.3163 14.98331571 77931,6950.188,96.107,574.556,569.55,0.0
55433.0,STARLINK-5570,PAYLOAD,2024-07-02 12:17:48,14.98334915,0.000359,69.9985,215.4296,266.5992,93.4756,0.00018619,2.13e-05,0.0,0 STARLINK-5570,1 55433U 23014AU  24184.51236196  .00002130  00000-0  18619-3 0  9996,2 55433  69.9985 215.4296 0003590 266.5992  93.4756 14.98334915 78920,6950.178,96.107,574.538,569.548,0.0
55433.0,STARLINK-5570,PAYLOAD,2024-07-03 04:19:09,14.98331508,0.0003505,69.9987,213.7464,266.8026,93.2732,2.6032e-05,2.18e-06,0.0,0 STARLINK-5570,1 55433U 23014AU  24185.17996710  .00000218  00000-0  26032-4 0  9998,2 55433  69.9987 213.7464 0003505 266.8026  93.2732 14.98331508 78081,6950.188,96.107,574.489,569.617,0.0
55433.0,STARLINK-5570,PAYLOAD,2024-07-03 12:19:49,14.98331793,0.0003508,69.9987,212.9048,266.7801,93.2957,2.2419e-05,1.74e-06,0.0,0 STARLINK-5570,1 55433U 23014AU  24185.51376630  .00000174  00000-0  22419-4 0  9995,2 55433  69.9987 212.9048 0003508 266.7801  93.2957 14.98331793 79078,6950.187,96.107,574.49,569.614,0.0
55433.0,STARLINK-5570,PAYLOAD,2024-07-04 04:21:09,14.98333888,0.0003488,69.9987,211.2217,266.3315,93.7445,-2.9228e-05,-4.42e-06,0.0,0 STARLINK-5570,1 55433U 23014AU  24186.18136444 -.00000442  00000-0 -29228-4 0  9991,2 55433  69.9987 211.2217 0003488 266.3315  93.7445 14.98333888 78232,6950.181,96.107,574.47,569.622,0.0
55433.0,STARLINK-5570,PAYLOAD,2024-07-04 10:45:42,14.98333218,0.0003478,69.9988,210.5485,266.0978,93.9783,-3.5086e-05,-5.12e-06,0.0,0 STARLINK-5570,1 55433U 23014AU  24186.44840424 -.00000512  00000-0 -35086-4 0  9997,2 55433  69.9988 210.5485 0003478 266.0978  93.9783 14.98333218 79216,6950.183,96.107,574.465,569.631,0.0
55433.0,STARLINK-5570,PAYLOAD,2024-07-04 18:46:22,14.98333,0.0003485,69.9989,209.7069,266.4707,93.6054,-1.3813e-05,-2.58e-06,0.0,0 STARLINK-5570,1 55433U 23014AU  24186.78220301 -.00000258  00000-0 -13813-4 0  9991,2 55433  69.9989 209.7069 0003485 266.4707  93.6054 14.98333000 79269,6950.184,96.107,574.471,569.626,0.0
55433.0,STARLINK-5570,PAYLOAD,2024-07-05 04:23:10,14.98329505,0.0003551,69.9986,208.6971,267.3883,92.6869,3.3056e-05,3.01e-06,0.0,0 STARLINK-5570,1 55433U 23014AU  24187.18276383  .00000301  00000-0  33056-4 0  9995,2 55433  69.9986 208.6971 0003551 267.3883  92.6869 14.98329505 78385,6950.194,96.107,574.527,569.591,0.0
55433.0,STARLINK-5570,PAYLOAD,2024-07-05 10:47:42,14.98330249,0.0003549,69.9987,208.0238,267.4015,92.6738,3.8287e-05,3.64e-06,0.0,0 STARLINK-5570,1 55433U 23014AU  24187.44980322  .00000364  00000-0  38287-4 0  9999,2 55433  69.9987 208.0238 0003549 267.4015  92.6738 14.98330249 79362,6950.192,96.107,574.524,569.59,0.0
55433.0,STARLINK-5570,PAYLOAD,2024-07-05 18:48:23,14.98330561,0.0003589,69.9986,207.1822,268.2927,91.7821,3.02e-05,2.67e-06,0.0,0 STARLINK-5570,1 55433U 23014AU  24187.78360321  .00000267  00000-0  30200-4 0  9996,2 55433  69.9986 207.1822 0003589 268.2927  91.7821 14.98330561 79411,6950.191,96.107,574.551,569.562,0.0
55433.0,STARLINK-5570,PAYLOAD,2024-07-06 04:25:11,14.98329719,0.0003592,69.9985,206.1723,268.0339,92.0409,2.5785e-05,2.15e-06,0.0,0 STARLINK-5570,1 55433U 23014AU  24188.18416374  .00000215  00000-0  25785-4 0  9996,2 55433  69.9985 206.1723 0003592 268.0339  92.0409 14.98329719 78539,6950.194,96.107,574.555,569.562,0.0
55433.0,STARLINK-5570,PAYLOAD,2024-07-06 10:49:43,14.98330465,0.0003595,69.9987,205.499,267.8946,92.1802,3.1033e-05,2.77e-06,0.0,0 STARLINK-5570,1 55433U 23014AU  24188.45120310  .00000277  00000-0  31033-4 0  9999,2 55433  69.9987 205.4990 0003595 267.8946  92.1802 14.98330465 79510,6950.191,96.107,574.555,569.558,0.0
55433.0,STARLINK-5570,PAYLOAD,2024-07-06 18:50:24,14.98329682,0.0003596,69.9987,204.6572,267.8784,92.1963,1.6349e-05,1.02e-06,0.0,0 STARLINK-5570,1 55433U 23014AU  24188.78500348  .00000102  00000-0  16349-4 0  9998,2 55433  69.9987 204.6572 0003596 267.8784  92.1963 14.98329682 79560,6950.194,96.107,574.558,569.56,0.0
55433.0,STARLINK-5570,PAYLOAD,2024-07-07 04:27:12,14.98330237,0.000361,69.9987,203.6471,267.5508,92.5237,3.9068e-05,3.73e-06,0.0,0 STARLINK-5570,1 55433U 23014AU  24189.18556243  .00000373  00000-0  39068-4 0  9991,2 55433  69.9987 203.6471 0003610 267.5508  92.5237 14.98330237 78683,6950.192,96.107,574.566,569.548,0.0
55433.0,STARLINK-5570,PAYLOAD,2024-07-07 10:51:44,14.98331661,0.0003622,69.9988,202.9739,267.8083,92.2662,3.2789e-05,2.98e-06,0.0,0 STARLINK-5570,1 55433U 23014AU  24189.45260156  .00000298  00000-0  32789-4 0  9995,2 55433  69.9988 202.9739 0003622 267.8083  92.2662 14.98331661 79667,6950.188,96.107,574.57,569.535,0.0
55433.0,STARLINK-5570,PAYLOAD,2024-07-08 10:53:45,14.98332778,0.0003601,69.9991,200.4491,267.5578,92.5168,4.6978e-05,4.68e-06,0.0,0 STARLINK-5570,1 55433U 23014AU  24190.45399952  .00000468  00000-0  46978-4 0  9998,2 55433  69.9991 200.4491 0003601 267.5578  92.5168 14.98332778 78878,6950.184,96.107,574.552,569.547,0.0
55433.0,STARLINK-5570,PAYLOAD,2024-07-09 10:55:46,14.98331742,0.0003552,69.9993,197.9244,267.4819,92.5934,3.0226e-05,2.68e-06,0.0,0 STARLINK-5570,1 55433U 23014AU  24191.45539960  .00000268  00000-0  30226-4 0  9991,2 55433  69.9993 197.9244 0003552 267.4819  92.5934 14.98331742 79027,6950.188,96.107,574.521,569.584,0.0
55433.0,STARLINK-5570,PAYLOAD,2024-07-10 09:21:39,14.98327687,0.0003502,69.9993,195.5681,267.3037,92.7721,-2.3257e-05,-3.71e-06,0.0,0 STARLINK-5570,1 55433U 23014AU  24192.39004390 -.00000371  00000-0 -23257-4 0  9992,2 55433  69.9993 195.5681 0003502 267.3037  92.7721 14.98327687 79166,6950.2,96.107,574.499,569.631,0.0
